[{"OBJECT_NAME":"STARLINK-2658","OBJECT_ID":"2021-040AX","EPOCH":"2026-03-10T00:00:02.999808","MEAN_MOTION":15.25799654,"ECCENTRICITY":0.00012565,"INCLINATION":53.1397,"RA_OF_ASC_NODE":189.517,"ARG_OF_PERICENTER":100.8421,"MEAN_ANOMALY":323.7871,"EPHEMERIS_TYPE":0,"CLASSIFICATION_TYPE":"U","NORAD_CAT_ID":48473,"ELEMENT_SET_NO":999,"REV_AT_EPOCH":579,"BSTAR":0.059705291,"MEAN_MOTION_DOT":0.01715638,"MEAN_MOTION_DDOT":0},{"OBJECT_NAME":"USA 40 R\/B DEB","OBJECT_ID":"1989-061BX","EPOCH":"2026-03-08T03:59:26.617920","MEAN_MOTION":9.34911451,"ECCENTRICITY":0.28222994,"INCLINATION":57.0206,"RA_OF_ASC_NODE":2.9696,"ARG_OF_PERICENTER":173.1457,"MEAN_ANOMALY":191.8496,"EPHEMERIS_TYPE":0,"CLASSIFICATION_TYPE":"U","NORAD_CAT_ID":44524,"ELEMENT_SET_NO":999,"REV_AT_EPOCH":19674,"BSTAR":0.0049845599,"MEAN_MOTION_DOT":0.00012255,"MEAN_MOTION_DDOT":0}]
